[{"OBJECT_NAME":"PROTOMETHEE","OBJECT_ID":"2023-174BT","EPOCH":"2026-03-09T23:28:08.029344","MEAN_MOTION":15.30202663,"ECCENTRICITY":0.00088339,"INCLINATION":97.3826,"RA_OF_ASC_NODE":147.9552,"ARG_OF_PERICENTER":148.5993,"MEAN_ANOMALY":211.5776,"EPHEMERIS_TYPE":0,"CLASSIFICATION_TYPE":"U","NORAD_CAT_ID":58321,"ELEMENT_SET_NO":999,"REV_AT_EPOCH":12979,"BSTAR":0.00015715731,"MEAN_MOTION_DOT":4.52e-5,"MEAN_MOTION_DDOT":0},{"OBJECT_NAME":"STARLINK-33896","OBJECT_ID":"2025-093AB","EPOCH":"2026-03-09T21:45:03.921696","MEAN_MOTION":15.27587038,"ECCENTRICITY":0.00010507,"INCLINATION":43.0003,"RA_OF_ASC_NODE":76.7988,"ARG_OF_PERICENTER":259.929,"MEAN_ANOMALY":100.1443,"EPHEMERIS_TYPE":0,"CLASSIFICATION_TYPE":"U","NORAD_CAT_ID":63861,"ELEMENT_SET_NO":999,"REV_AT_EPOCH":4778,"BSTAR":0.00069706536,"MEAN_MOTION_DOT":0.00018973,"MEAN_MOTION_DDOT":0}]
